# From MPEC 2021-P47
P/2016 G1 (PANSTARRS),e,10.9707,204.0170,111.1069,2.583940,0.2372906,0.21020586,277.3794,06/02.0/2024,2000,g 14.0,4.0
# From MPC102099
P/2016 P1 (PANSTARRS),e,24.3818,319.3676,270.7065,3.202377,0.1719869,0.28822556,187.0060,06/02.0/2024,2000,g 15.0,4.0
# From MPEC 2024-H50
C/2016 Q2 (PANSTARRS),h,05/12.2652/2021,109.3536,322.3359,84.5496,1.003175,7.080747,2000,6.0,4.0
# From MPEC 2022-K19
P/2016 R4 (Gibbs),e,10.8705,168.2811,174.1303,5.335127,0.0799810,0.47535988,229.5770,06/02.0/2024,2000,g 12.5,4.0
# From MPC105543
P/2016 S1 (PANSTARRS),e,94.7394,227.6770,273.1978,8.270353,0.0414398,0.71136675,109.0718,06/02.0/2024,2000,g 12.0,4.0
# From MPC106345
P/2016 WM48 (Lemmon),e,117.6350,59.9539,36.1780,8.173259,0.0421804,0.78374289,111.9315,06/02.0/2024,2000,g 15.0,4.0
# From MPC103847
P/2017 B4 (PANSTARRS),e,20.0584,121.4578,11.0197,4.410520,0.1064068,0.36495152,359.9130,01/05.0/2017,2000,g 14.5,4.0
# From MPEC 2022-OB6
P/2017 D1 (Fuls),e,20.7723,82.1997,8.0016,4.824901,0.0929975,0.43765632,269.5265,06/02.0/2024,2000,g 14.0,4.0
# From MPEC 2022-OB6
P/2017 D4 (PANSTARRS),e,10.5585,264.9077,212.1238,7.543323,0.0475729,0.63008823,134.3454,06/02.0/2024,2000,g 13.0,4.0
# From MPEC 2024-C04
P/2017 G1 (PANSTARRS),e,5.1553,247.1389,225.2326,7.194000,0.0510797,0.65034191,151.5457,06/02.0/2024,2000,g 13.5,4.0
# From MPC108595
P/2017 G2 (PANSTARRS),e,47.9679,79.8949,105.2678,8.041358,0.0432225,0.64812962,110.2118,06/02.0/2024,2000,g 13.0,4.0
# From MPEC 2024-KD0
C/2017 K2 (PANSTARRS),h,12/19.5448/2022,87.5913,88.2270,236.2093,1.000336,1.798092,2000,1.5,4.0
# From MPEC 2021-N06
P/2017 K3 (Gasparovic),e,4.2734,354.2903,253.3130,5.585003,0.0746739,0.57895595,191.6665,06/02.0/2024,2000,g 14.5,4.0
# From MPEC 2021-P47
C/2017 K5 (PANSTARRS),h,03/26.6271/2020,82.2720,102.4391,172.0190,1.003785,7.683813,2000,5.0,4.0
# From MPC114599
P/2017 P1 (PANSTARRS),e,7.6877,221.4613,122.8099,7.920615,0.0442146,0.30984699,96.0205,06/02.0/2024,2000,g 10.0,4.0
# From MPEC 2022-OB6
P/2017 S8 (PANSTARRS),e,29.8436,191.5304,254.8762,2.778780,0.2127761,0.39103207,133.1154,06/02.0/2024,2000,g 16.0,4.0
# From MPEC 2024-A43
C/2017 T2 (PANSTARRS),e,57.2928,64.4508,92.8219,1492,0.0000171,0.99892190,0.0000,05/05.3059/2020,2000,g  5.0,4.0
# From MPC115882
P/2017 TW13 (Lemmon),e,44.8698,322.1937,119.9415,7.135485,0.0517093,0.71072352,112.2556,06/02.0/2024,2000,g 15.0,2.0
# From MPEC 2022-K19
P/2017 U3 (PANSTARRS),e,15.9184,165.0805,296.2590,4.921404,0.0902756,0.10046860,169.3792,06/02.0/2024,2000,g 11.0,4.0
# From MPEC 2024-KD0
C/2017 U7 (PANSTARRS),h,09/16.0949/2019,142.6332,276.3043,326.4629,1.002656,6.426284,2000,8.3,2.0
# From MPC114601
P/2017 W3 (Gibbs),e,18.1767,210.1329,327.7691,7.822881,0.0450458,0.50655171,103.0650,06/02.0/2024,2000,g 10.5,4.0
# From MPEC 2024-DC6
C/2017 Y2 (PANSTARRS),h,11/05.1108/2020,128.4491,66.0347,147.8915,1.001496,4.627874,2000,15.0,4.0
# From MPC111770
P/2017 Y3 (Leonard),e,27.5984,153.9374,67.4537,9.803944,0.0321072,0.86934287,74.0781,06/02.0/2024,2000,g 16.5,4.0
# From MPC109147
P/2018 A5 (PANSTARRS),e,23.6197,87.7832,359.5117,5.625532,0.0738684,0.52427023,180.2377,06/02.0/2024,2000,g 15.0,4.0
# From MPEC 2024-KD0
C/2018 A6 (Gibbs),e,77.1098,340.4156,264.3097,15.01046,0.0169478,0.79889341,30.3115,06/02.0/2024,2000,g  9.0,4.0
# From MPC114601
P/2018 C1 (Lemmon-Read),e,5.1057,270.2679,235.7267,5.650754,0.0733744,0.53232630,168.0772,06/02.0/2024,2000,g 13.5,4.0
# From MPEC 2022-M88
C/2018 DO4 (Lemmon),e,160.4473,251.3894,176.3467,25.44516,0.0076789,0.90500623,13.4461,06/02.0/2024,2000,g 11.0,4.0
# From MPEC 2023-A50
C/2018 F4 (PANSTARRS),e,78.0946,26.5193,263.2067,2306,0.0000089,0.99850542,0.0000,12/01.7501/2019,2000,g 11.0,6.0
# From MPEC 2021-Y10
C/2018 F4-A,e,78.0948,26.5195,263.2035,2227,0.0000094,0.99845246,0.0000,12/01.7382/2019,2000,g 11.0,6.0
# From MPEC 2023-D41
C/2018 F4-B,e,78.0957,26.5190,263.1893,2363,0.0000086,0.99854124,0.0000,12/01.6750/2019,2000,g 11.0,6.0
# From MPC114602
P/2018 H2 (PANSTARRS),e,7.4210,67.9741,119.4545,4.398110,0.1068575,0.54056550,251.0405,06/02.0/2024,2000,g 16.6,2.0
# From MPEC 2021-R75
C/2018 KJ3 (Lemmon),e,136.6340,91.6866,217.5939,806.5377,0.0000430,0.99551080,0.0000,09/09.6163/2019,2000,g 12.2,2.0
# From MPC114602
P/2018 L1 (PANSTARRS),e,10.5786,268.5900,17.9943,3.656151,0.1409834,0.48127941,286.4191,06/02.0/2024,2000,g 15.0,4.0
# From MPC114603
P/2018 L4 (PANSTARRS),e,26.5981,145.2149,140.5588,4.947510,0.0895620,0.65831645,191.2720,06/02.0/2024,2000,g 17.5,4.0
# From MPEC 2024-KE5
P/2018 L5 (Leonard),e,2.2095,219.0282,93.9520,3.629077,0.1425640,0.36381635,316.3969,06/02.0/2024,2000,g 14.5,4.0
# From MPEC 2022-YN2
C/2018 N2 (ASASSN),h,11/11.8778/2019,77.5420,24.4991,25.2807,1.001694,3.132232,2000,6.0,4.0
# From MPC114603
P/2018 P4 (PANSTARRS),e,23.0953,353.1465,8.4865,6.692043,0.0569333,0.44983043,115.7044,06/02.0/2024,2000,g 12.0,4.0
# From MPC118841
C/2018 R3 (Lemmon),e,69.7076,324.4865,112.7303,1664,0.0000145,0.99922953,0.0000,06/08.0834/2019,2000,g  9.5,4.0
# From MPEC 2024-JU4
C/2018 U1 (Lemmon),h,11/02.7294/2021,108.3253,75.5124,180.4252,1.000953,4.990152,2000,5.0,4.0
# From MPEC 2023-CD7
P/2018 VN2 (Leonard),e,18.2605,226.4410,138.9236,4.061604,0.1204087,0.47843894,263.1218,06/02.0/2024,2000,g 15.0,4.0
# From MPEC 2022-VC5
A/2018 V3,e,164.9351,308.7726,3.6097,128.4535,0.0006770,0.98960377,0.0000,09/10.0634/2019,2000,g 15.7,2.0
# From MPEC 2021-P47
P/2018 V5 (Trujillo-Sheppard),e,10.5846,171.3182,260.7458,8.972052,0.0366747,0.47595652,75.7895,06/02.0/2024,2000,g 12.5,4.0
# From MPEC 2021-P47
C/2018 W2 (Africano),h,09/05.3906/2019,116.5917,181.8855,158.1811,1.000833,1.465124,2000,9.5,4.0
# From MPEC 2023-M14
A/2018 W3,e,104.8384,251.6892,313.9284,717.5963,0.0000513,0.99402544,0.0000,04/13.1061/2021,2000,g 10.7,2.0
# From MPC119996
C/2018 X2 (Fitzsimmons),e,23.0883,340.7222,161.9483,139.2759,0.0005996,0.98482032,0.0000,07/08.9477/2019,2000,g 12.0,4.0
# From MPC114605
P/2018 Y2 (Africano),e,11.6905,297.1468,162.3015,7.454189,0.0484288,0.47986273,95.7275,06/02.0/2024,2000,g 11.5,4.0
# From MPC114605
P/2019 A1 (PANSTARRS),e,13.7623,312.2305,150.7370,5.113821,0.0852287,0.56994604,175.5010,06/02.0/2024,2000,g 16.0,4.0
# From MPEC 2021-P47
P/2019 A2 (ATLAS),e,14.8668,139.3947,323.8867,5.711284,0.0722110,0.38294887,145.7685,06/02.0/2024,2000,g 10.5,4.0
# From MPEC 2022-M21
P/2019 A3 (PANSTARRS),e,15.3739,31.3568,325.6625,3.144874,0.1767255,0.26636271,16.1332,06/02.0/2024,2000,g 16.0,4.0
# From MPEC 2022-L66
P/2019 A4 (PANSTARRS),e,13.3043,119.3614,343.1031,2.614448,0.2331493,0.08733119,106.2993,06/02.0/2024,2000,g 15.0,4.0
# From MPEC 2021-P47
C/2019 A5 (PANSTARRS),e,67.5480,146.5587,355.7756,21.47857,0.0099014,0.70617147,18.0459,06/02.0/2024,2000,g  9.5,4.0
# From MPC114605
P/2019 A6 (Lemmon-PANSTARRS),e,33.2837,280.1855,156.2117,5.356799,0.0794961,0.64037688,167.0420,06/02.0/2024,2000,g 16.0,4.0
# From MPC115884
P/2019 A8 (PANSTARRS),e,2.2109,114.3837,63.8008,4.339754,0.1090201,0.22692825,240.8741,06/02.0/2024,2000,g 16.0,4.0
# From MPC118842
C/2019 A9 (PANSTARRS),e,84.3535,278.4489,237.9000,39.18874,0.0040176,0.96353105,7.1218,06/02.0/2024,2000,g 15.0,4.0
# From MPC115885
P/2019 B2 (Groeller),e,16.9702,175.7145,0.7720,3.922771,0.1268570,0.35814309,233.3994,06/02.0/2024,2000,g 14.5,4.0
# From MPEC 2024-JU4
C/2019 B3 (PANSTARRS),e,66.5616,358.4182,263.9762,5274,0.0000026,0.99870550,0.0000,01/19.9044/2021,2000,g  5.5,4.0
# From MPEC 2021-P47
C/2019 C1 (ATLAS),e,36.0497,212.3897,319.0184,652.5475,0.0000591,0.98993068,0.0000,05/04.0892/2020,2000,g 10.0,4.0
# From MPEC 2024-JU4
C/2019 E3 (ATLAS),e,84.3020,347.2212,280.7075,5948,0.0000021,0.99826621,0.0000,11/15.4274/2023,2000,g  2.5,4.0
# From MPEC 2024-GJ3
C/2019 F1 (ATLAS-Africano),h,06/21.9844/2021,54.2345,38.6639,251.3391,1.001246,3.608309,2000,5.5,4.0
# From MPEC 2021-P47
C/2019 F2 (ATLAS),e,19.3083,175.3863,11.6344,16.57768,0.0146022,0.86463379,25.2565,06/02.0/2024,2000,g 12.0,4.0
# From MPEC 2024-E01
C/2019 G2 (PANSTARRS),e,159.2280,208.1850,82.6651,405.9240,0.0001205,0.99433635,0.0000,12/07.4034/2019,2000,g 15.0,4.0
# From MPC114607
P/2019 GG21 (PANSTARRS),e,6.0865,340.5610,208.5861,7.468161,0.0482929,0.47172727,89.3544,06/02.0/2024,2000,g 12.0,4.0
# From MPEC 2021-R75
C/2019 J2 (Palomar),e,105.2512,25.5339,98.6250,160.8607,0.0004831,0.98931496,0.0000,07/20.6784/2019,2000,g 13.0,4.0
# From MPC117071
C/2019 J3 (ATLAS),h,08/02.4330/2019,131.3109,270.6420,16.5556,1.000328,2.365836,2000,13.5,4.0
# From MPEC 2022-M21
C/2019 JU6 (ATLAS),h,06/02.5993/2019,148.3239,21.7486,94.9073,1.000050,2.038011,2000,14.5,4.0
# From MPEC 2022-O08
C/2019 K1 (ATLAS),e,87.0185,73.3114,265.7486,4518,0.0000032,0.99955352,0.0000,02/11.9542/2020,2000,g 10.0,4.0
# From MPC119997
C/2019 K4 (Ye),e,105.2956,180.2063,139.9693,1522,0.0000166,0.99850609,0.0000,06/15.2971/2019,2000,g 12.5,4.0
# From MPEC 2021-P47
C/2019 K5 (Young),e,15.3088,177.2113,175.1499,169.7892,0.0004455,0.98793177,0.0000,06/22.4179/2019,2000,g 13.0,4.0
# From MPEC 2021-P47
C/2019 K6 (PANSTARRS),e,132.3800,43.0010,187.5064,1155,0.0000251,0.99660589,0.0000,05/19.4252/2020,2000,g 11.5,4.0
# From MPEC 2024-GJ3
C/2019 K7 (Smith),h,06/17.5878/2020,103.5056,308.0050,27.4011,1.000885,4.477438,2000,6.0,4.0
# From MPEC 2021-R75
C/2019 K8 (ATLAS),e,93.0877,291.0115,85.3611,2062,0.0000105,0.99845040,0.0000,07/21.1928/2019,2000,g 11.5,4.0
# From MPEC 2023-A50
C/2019 L1 (PANSTARRS),e,9.9745,254.4278,50.0537,9.830959,0.0319750,0.70467422,56.2395,06/02.0/2024,2000,g 13.5,4.0
# From MPEC 2024-GJ3
P/2019 LD2 (ATLAS),e,11.6028,179.3781,117.9376,5.194891,0.0832414,0.12757511,130.5976,06/02.0/2024,2000,g  8.5,4.0
# From MPEC 2024-KD0
C/2019 L3 (ATLAS),h,01/09.8698/2022,48.3444,290.7443,171.6717,1.002616,3.555393,2000,4.5,4.0
# From MPEC 2020-K19
P/2019 LM4 (Palomar),e,36.4180,72.8426,68.2617,5.704052,0.0723484,0.58547461,130.9862,06/02.0/2024,2000,g  9.5,4.0
# From MPEC 2024-DC6
P/2019 M2 (ATLAS),e,12.2662,307.6097,332.5242,3.030075,0.1868633,0.64729242,337.9178,06/02.0/2024,2000,g 21.2,4.0
